{"type": "FeatureCollection", "features": [ {"type": "Feature", "properties": {"norad_id": 35835, "name": "COSMOS 2251 DEB", "group": "cosmos-2251-debris", "lat": 2.4029769734099142, "lon": -113.96962055692882, "alt_km": 755.7226882439927, "timestamp": "2025-12-26T11:25:45.587012+00:00", "meta": {"OBJECT_NAME": "COSMOS 2251 DEB", "OBJECT_ID": "1993-036ATH", "EPOCH": "2025-12-24T22:57:37.404288", "MEAN_MOTION": 13.82930513, "ECCENTRICITY": 0.02914061, "INCLINATION": 74.0631, "RA_OF_ASC_NODE": 247.8975, "ARG_OF_PERICENTER": 26.7225, "MEAN_ANOMALY": 334.8581, "EPHEMERIS_TYPE": 0, "CLASSIFICATION_TYPE": "U", "NORAD_CAT_ID": 35835, "ELEMENT_SET_NO": 999, "REV_AT_EPOCH": 61868, "BSTAR": 0.0014309898, "MEAN_MOTION_DOT": 2.142e-05, "MEAN_MOTION_DDOT": 0}, "tle": {"line1": "1 35835U 93036ATH 25358.95668292  .00002142  00000+0  14310-2 0  9994", "line2": "2 35835  74.0631 247.8975 0291406  26.7225 334.8581 13.82930513618681"}}, "geometry": {"type": "Point", "coordinates": [-113.96962055692882, 2.4029769734099142]}}, {"type": "Feature", "properties": {"norad_id": 35836, "name": "COSMOS 2251 DEB", "group": "cosmos-2251-debris", "lat": -71.43633339845738, "lon": 24.743191628246148, "alt_km": 654.8020031898068, "timestamp": "2025-12-26T11:25:45.587021+00:00", "meta": {"OBJECT_NAME": "COSMOS 2251 DEB", "OBJECT_ID": "1993-036ATJ", "EPOCH": "2025-12-25T03:14:36.827808", "MEAN_MOTION": 14.7125789, "ECCENTRICITY": 0.0023385, "INCLINATION": 74.0326, "RA_OF_ASC_NODE": 148.8553, "ARG_OF_PERICENTER": 206.6713, "MEAN_ANOMALY": 153.3258, "EPHEMERIS_TYPE": 0, "CLASSIFICATION_TYPE": "U", "NORAD_CAT_ID": 35836, "ELEMENT_SET_NO": 999, "REV_AT_EPOCH": 63702, "BSTAR": 0.0023898, "MEAN_MOTION_DOT": 0.00014813, "MEAN_MOTION_DDOT": 0}, "tle": {"line1": "1 35836U 93036ATJ 25359.13514847  .00014813  00000+0  23898-2 0  9991", "line2": "2 35836  74.0326 148.8553 0023385 206.6713 153.3258 14.71257890637028"}}, "geometry": {"type": "Point", "coordinates": [24.743191628246148, -71.43633339845738]}}, {"type": "Feature", "properties": {"norad_id": 35837, "name": "COSMOS 2251 DEB", "group": "cosmos-2251-debris", "lat": -73.7044915888112, "lon": 96.6392315812153, "alt_km": 1333.2973857633597, "timestamp": "2025-12-26T11:25:45.587030+00:00", "meta": {"OBJECT_NAME": "COSMOS 2251 DEB", "OBJECT_ID": "1993-036ATK", "EPOCH": "2025-12-23T20:48:22.053024", "MEAN_MOTION": 13.63560689, "ECCENTRICITY": 0.0421934, "INCLINATION": 73.722, "RA_OF_ASC_NODE": 189.1152, "ARG_OF_PERICENTER": 108.1648, "MEAN_ANOMALY": 317.2477, "EPHEMERIS_TYPE": 0, "CLASSIFICATION_TYPE": "U", "NORAD_CAT_ID": 35837, "ELEMENT_SET_NO": 999, "REV_AT_EPOCH": 58128, "BSTAR": 0.0035572, "MEAN_MOTION_DOT": 5.124e-05, "MEAN_MOTION_DDOT": 0}, "tle": {"line1": "1 35837U 93036ATK 25357.86692191  .00005124  00000+0  35572-2 0  9996", "line2": "2 35837  73.7220 189.1152 0421934 108.1648 317.2477 13.63560689581289"}}, "geometry": {"type": "Point", "coordinates": [96.6392315812153, -73.7044915888112]}}, {"type": "Feature", "properties": {"norad_id": 35839, "name": "COSMOS 2251 DEB", "group": "cosmos-2251-debris", "lat": 28.685548789812234, "lon": 104.44054037794513, "alt_km": 368.57376906177615, "timestamp": "2025-12-26T11:25:45.587039+00:00", "meta": {"OBJECT_NAME": "COSMOS 2251 DEB", "OBJECT_ID": "1993-036ATM", "EPOCH": "2025-12-25T05:36:24.372288", "MEAN_MOTION": 15.62492675, "ECCENTRICITY": 0.0009075, "INCLINATION": 74.2047, "RA_OF_ASC_NODE": 296.1018, "ARG_OF_PERICENTER": 139.1266, "MEAN_ANOMALY": 221.0637, "EPHEMERIS_TYPE": 0, "CLASSIFICATION_TYPE": "U", "NORAD_CAT_ID": 35839, "ELEMENT_SET_NO": 999, "REV_AT_EPOCH": 88762, "BSTAR": 0.0065592, "MEAN_MOTION_DOT": 0.00631495, "MEAN_MOTION_DDOT": 0}, "tle": {"line1": "1 35839U 93036ATM 25359.23361542  .00631495  00000+0  65592-2 0  9995", "line2": "2 35839  74.2047 296.1018 0009075 139.1266 221.0637 15.62492675887629"}}, "geometry": {"type": "Point", "coordinates": [104.44054037794513, 28.685548789812234]}}, {"type": "Feature", "properties": {"norad_id": 35840, "name": "COSMOS 2251 DEB", "group": "cosmos-2251-debris", "lat": 30.47395175675982, "lon": -57.04865978238276, "alt_km": 799.5308682616778, "timestamp": "2025-12-26T11:25:45.587048+00:00", "meta": {"OBJECT_NAME": "COSMOS 2251 DEB", "OBJECT_ID": "1993-036ATN", "EPOCH": "2025-12-24T15:20:22.552224", "MEAN_MOTION": 14.37934455, "ECCENTRICITY": 0.01160056, "INCLINATION": 73.9312, "RA_OF_ASC_NODE": 136.1205, "ARG_OF_PERICENTER": 35.3241, "MEAN_ANOMALY": 325.5527, "EPHEMERIS_TYPE": 0, "CLASSIFICATION_TYPE": "U", "NORAD_CAT_ID": 35840, "ELEMENT_SET_NO": 999, "REV_AT_EPOCH": 85462, "BSTAR": 0.001538727, "MEAN_MOTION_DOT": 5e-05, "MEAN_MOTION_DDOT": 0}, "tle": {"line1": "1 35840U 93036ATN 25358.63914991  .00005000  00000+0  15387-2 0  9996", "line2": "2 35840  73.9312 136.1205 0116005  35.3241 325.5527 14.37934455854625"}}, "geometry": {"type": "Point", "coordinates": [-57.04865978238276, 30.47395175675982]}}, {"type": "Feature", "properties": {"norad_id": 35883, "name": "COSMOS 2251 DEB", "group": "cosmos-2251-debris", "lat": 51.61073497001215, "lon": 65.38317653864169, "alt_km": 743.5083567763049, "timestamp": "2025-12-26T11:25:45.587057+00:00", "meta": {"OBJECT_NAME": "COSMOS 2251 DEB", "OBJECT_ID": "1993-036ATW", "EPOCH": "2025-12-23T21:05:13.714080", "MEAN_MOTION": 14.50630693, "ECCENTRICITY": 0.0083107, "INCLINATION": 74.0242, "RA_OF_ASC_NODE": 49.0707, "ARG_OF_PERICENTER": 175.772, "MEAN_ANOMALY": 359.9485, "EPHEMERIS_TYPE": 0, "CLASSIFICATION_TYPE": "U", "NORAD_CAT_ID": 35883, "ELEMENT_SET_NO": 999, "REV_AT_EPOCH": 62547, "BSTAR": 0.00025575, "MEAN_MOTION_DOT": 1.02e-05, "MEAN_MOTION_DDOT": 0}, "tle": {"line1": "1 35883U 93036ATW 25357.87863095  .00001020  00000+0  25575-3 0  9995", "line2": "2 35883  74.0242  49.0707 0083107 175.7720 359.9485 14.50630693625477"}}, "geometry": {"type": "Point", "coordinates": [65.38317653864169, 51.61073497001215]}}, {"type": "Feature", "properties": {"norad_id": 35884, "name": "COSMOS 2251 DEB", "group": "cosmos-2251-debris", "lat": -15.597462144406428, "lon": -53.45907380938313, "alt_km": 837.0776089245674, "timestamp": "2025-12-26T11:25:45.587065+00:00", "meta": {"OBJECT_NAME": "COSMOS 2251 DEB", "OBJECT_ID": "1993-036ATX", "EPOCH": "2025-12-23T04:21:24.693984", "MEAN_MOTION": 14.25720371, "ECCENTRICITY": 0.01085787, "INCLINATION": 73.9917, "RA_OF_ASC_NODE": 317.1007, "ARG_OF_PERICENTER": 101.1734, "MEAN_ANOMALY": 260.1642, "EPHEMERIS_TYPE": 0, "CLASSIFICATION_TYPE": "U", "NORAD_CAT_ID": 35884, "ELEMENT_SET_NO": 999, "REV_AT_EPOCH": 22506, "BSTAR": 0.0013065465, "MEAN_MOTION_DOT": 3.275e-05, "MEAN_MOTION_DDOT": 0}, "tle": {"line1": "1 35884U 93036ATX 25357.18153581  .00003275  00000+0  13065-2 0  9996", "line2": "2 35884  73.9917 317.1007 0108578 101.1734 260.1642 14.25720371225069"}}, "geometry": {"type": "Point", "coordinates": [-53.45907380938313, -15.597462144406428]}}, {"type": "Feature", "properties": {"norad_id": 35885, "name": "COSMOS 2251 DEB", "group": "cosmos-2251-debris", "lat": -0.18767071832805463, "lon": -90.55019654497046, "alt_km": 752.6282048218127, "timestamp": "2025-12-26T11:25:45.587074+00:00", "meta": {"OBJECT_NAME": "COSMOS 2251 DEB", "OBJECT_ID": "1993-036ATY", "EPOCH": "2025-12-26T03:04:45.546816", "MEAN_MOTION": 14.37544343, "ECCENTRICITY": 0.0023864, "INCLINATION": 74.0284, "RA_OF_ASC_NODE": 270.1439, "ARG_OF_PERICENTER": 347.831, "MEAN_ANOMALY": 12.2264, "EPHEMERIS_TYPE": 0, "CLASSIFICATION_TYPE": "U", "NORAD_CAT_ID": 35885, "ELEMENT_SET_NO": 999, "REV_AT_EPOCH": 65208, "BSTAR": 0.00028033, "MEAN_MOTION_DOT": 8.16e-06, "MEAN_MOTION_DDOT": 0}, "tle": {"line1": "1 35885U 93036ATY 25360.12830494  .00000816  00000+0  28033-3 0  9990", "line2": "2 35885  74.0284 270.1439 0023864 347.8310  12.2264 14.37544343652087"}}, "geometry": {"type": "Point", "coordinates": [-90.55019654497046, -0.18767071832805463]}}, {"type": "Feature", "properties": {"norad_id": 35888, "name": "COSMOS 2251 DEB", "group": "cosmos-2251-debris", "lat": -72.17019132794891, "lon": -146.59495265151955, "alt_km": 737.9316873156404, "timestamp": "2025-12-26T11:25:45.587083+00:00", "meta": {"OBJECT_NAME": "COSMOS 2251 DEB", "OBJECT_ID": "1993-036AUB", "EPOCH": "2025-12-24T15:25:47.112960", "MEAN_MOTION": 14.58358709, "ECCENTRICITY": 0.00479961, "INCLINATION": 74.034, "RA_OF_ASC_NODE": 334.0069, "ARG_OF_PERICENTER": 102.564, "MEAN_ANOMALY": 258.0899, "EPHEMERIS_TYPE": 0, "CLASSIFICATION_TYPE": "U", "NORAD_CAT_ID": 35888, "ELEMENT_SET_NO": 999, "REV_AT_EPOCH": 86447, "BSTAR": 0.00043220593, "MEAN_MOTION_DOT": 2.004e-05, "MEAN_MOTION_DDOT": 0}, "tle": {"line1": "1 35888U 93036AUB 25358.64290640  .00002004  00000+0  43221-3 0  9997", "line2": "2 35888  74.0340 334.0069 0047996 102.5640 258.0899 14.58358709864470"}}, "geometry": {"type": "Point", "coordinates": [-146.59495265151955, -72.17019132794891]}}, {"type": "Feature", "properties": {"norad_id": 35890, "name": "COSMOS 2251 DEB", "group": "cosmos-2251-debris", "lat": -73.30269431968814, "lon": 110.2956137311054, "alt_km": 696.4851215562148, "timestamp": "2025-12-26T11:25:45.587092+00:00", "meta": {"OBJECT_NAME": "COSMOS 2251 DEB", "OBJECT_ID": "1993-036AUD", "EPOCH": "2025-12-21T00:05:00.914784", "MEAN_MOTION": 14.57585084, "ECCENTRICITY": 0.00541447, "INCLINATION": 73.9362, "RA_OF_ASC_NODE": 226.8978, "ARG_OF_PERICENTER": 350.2956, "MEAN_ANOMALY": 9.7156, "EPHEMERIS_TYPE": 0, "CLASSIFICATION_TYPE": "U", "NORAD_CAT_ID": 35890, "ELEMENT_SET_NO": 999, "REV_AT_EPOCH": 65271, "BSTAR": 0.0010880234, "MEAN_MOTION_DOT": 5.027e-05, "MEAN_MOTION_DDOT": 0}, "tle": {"line1": "1 35890U 93036AUD 25355.00348281  .00005027  00000+0  10880-2 0  9994", "line2": "2 35890  73.9362 226.8978 0054144 350.2956   9.7156 14.57585084652713"}}, "geometry": {"type": "Point", "coordinates": [110.2956137311054, -73.30269431968814]}}]}